OBJECT_NAME,OBJECT_ID,EPOCH,MEAN_MOTION,ECCENTRICITY,INCLINATION,RA_OF_ASC_NODE,ARG_OF_PERICENTER,MEAN_ANOMALY,EPHEMERIS_TYPE,CLASSIFICATION_TYPE,NORAD_CAT_ID,ELEMENT_SET_NO,REV_AT_EPOCH,BSTAR,MEAN_MOTION_DOT,MEAN_MOTION_DDOT
CUTE-1 (CO-55),2003-031E,2026-05-11T00:23:16.888416,14.24312209,.00083928,98.6748,140.0418,297.0013,63.0309,0,U,27844,999,18638,.10731345E-3,.204E-5,0
CUBESAT XI-IV (CO-57),2003-031J,2026-05-11T18:13:10.852032,14.23600757,.000853,98.6780,140.5174,315.4592,44.5900,0,U,27848,999,18619,.89832E-4,.161E-5,0
CUBESAT XI-V,2005-043F,2026-05-11T08:53:33.440352,14.72532793,.00132409,98.2945,286.2304,326.6866,33.3506,0,U,28895,999,9633,.14206378E-3,.85E-5,0
CUTE-1.7+APD II (CO-65),2008-021C,2026-05-11T20:24:53.637120,15.09100100,.0009974,97.8260,112.5287,143.3752,216.8159,0,U,32785,999,97971,.16909E-3,.2616E-4,0
CANX-2,2008-021H,2026-05-11T20:45:37.442016,15.05355532,.001104,97.8628,110.9502,156.9373,203.2350,0,U,32790,999,97934,.15041E-3,.2092E-4,0
SEEDS II (CO-66),2008-021J,2026-05-10T23:20:11.852160,15.31474077,.00050721,97.7530,127.1344,88.5832,271.5989,0,U,32791,999,98159,.36524846E-3,.11027E-3,0
SWISSCUBE,2009-051B,2026-05-11T16:49:47.231040,14.62408901,.00063,98.4058,38.9523,338.0405,22.0525,0,U,35932,999,88382,.13029E-3,.61E-5,0
BEESAT-1,2009-051C,2026-05-11T11:40:31.173024,14.61658653,.00051561,98.3987,38.4455,356.8811,3.2357,0,U,35933,999,88382,.1123092E-3,.51E-5,0
ITUPSAT1,2009-051E,2026-05-10T16:35:56.864832,14.60382828,.00076232,98.4072,36.8697,5.6146,354.5137,0,U,35935,999,88326,.11515601E-3,.508E-5,0
TISAT 1,2010-035E,2026-05-11T09:13:52.591008,15.30302000,.00036667,98.0690,74.7177,55.9928,304.1659,0,U,36799,999,86207,.45559591E-3,.1328E-3,0
AEROCUBE 4.5A,2012-048K,2026-05-11T16:32:03.479424,15.77523696,.0019411,64.6293,158.3602,217.0923,142.8891,0,U,38767,999,36687,.67162E-3,.114867E-2,0
STRAND-1,2013-009E,2026-05-11T12:06:11.716128,14.37141086,.00082946,98.3917,312.6434,349.0918,11.0088,0,U,39090,999,69179,.74739087E-4,.179E-5,0
BRITE-AUSTRIA,2013-009F,2026-05-11T10:21:46.158336,14.36527080,.00100374,98.3988,311.7791,357.0743,3.0383,0,U,39091,999,69177,.51969053E-4,.11E-5,0
NEE-01 PEGASO,2013-018B,2026-05-11T14:51:44.542656,14.93479759,.0011189,98.1174,274.5769,286.1094,73.8893,0,U,39151,999,70524,.18706E-3,.1908E-4,0
POPACS 2,2013-055E,2026-05-11T14:18:18.338976,14.90383682,.0419365,80.9931,186.0535,311.5041,45.0875,0,U,39269,999,65776,.158E-3,.9204E-4,0
POPACS 3,2013-055F,2026-05-11T19:49:10.474752,14.55222954,.0554945,81.0002,268.5835,180.5703,179.4942,0,U,39270,999,63326,.2719E-3,.1137E-3,0
ZACUBE-1 (TSHEPISOSAT),2013-066B,2026-05-11T21:02:32.381088,15.00902822,.0042031,97.8119,94.0169,15.3524,344.8964,0,U,39417,999,67528,.23309E-3,.2959E-4,0
WNISAT-1,2013-066H,2026-05-11T08:36:42.410016,14.58016619,.01628163,97.7157,283.1389,348.4142,11.3329,0,U,39423,999,66136,.64545563E-4,.305E-5,0
TRITON-1,2013-066M,2026-05-11T19:50:54.116736,14.81542466,.0090228,97.8260,42.4619,353.9220,6.0890,0,U,39427,999,66870,.18357E-3,.1487E-4,0
GOMX-1,2013-066Q,2026-05-11T19:43:19.360704,14.69315553,.0128331,97.6514,334.5777,193.6825,166.0892,0,U,39430,999,66457,.22247E-3,.1438E-4,0
CUBEBUG-2 (LO-74),2013-066AA,2026-05-11T19:40:30.736416,14.93487885,.0058789,97.8889,80.6587,146.5112,213.9847,0,U,39440,999,67156,.19168E-3,.2024E-4,0
NEE-02 KRYSAOR,2013-066AB,2026-05-11T19:02:39.339168,14.86480801,.0065959,97.8880,71.2763,187.7640,172.2561,0,U,39441,999,67079,.11069E-3,.959E-5,0
FUNCUBE-1 (AO-73),2013-066AE,2026-05-11T20:33:40.017024,15.09012189,.0035547,97.8258,102.5623,330.1880,29.7323,0,U,39444,999,67418,.34283E-3,.5433E-4,0
UWE-3,2013-066AG,2026-05-11T20:24:49.071744,14.96716038,.0050951,97.8679,87.6953,80.9232,279.7749,0,U,39446,999,67214,.17105E-3,.1943E-4,0
BRITE-CA1 (TORONTO),2014-033L,2026-05-11T19:44:59.740224,14.72626274,.0079369,97.9686,261.4333,34.2439,326.3850,0,U,40020,999,63686,.75317E-4,.45E-5,0
DUCHIFAT-1,2014-033M,2026-05-11T10:03:17.685216,15.58150241,.00057031,98.0508,185.6247,190.8241,169.2891,0,U,40021,999,65001,.72925499E-3,.55146E-3,0
NANOSATC-BR1,2014-033Q,2026-05-11T12:50:55.668192,15.30286186,.00020259,98.0758,160.7076,334.6480,25.4659,0,U,40024,999,64837,.34204122E-3,.9937E-4,0
QB50P1,2014-033R,2026-05-11T18:18:06.033312,15.17687185,.0008491,98.0984,140.3709,3.0086,357.1195,0,U,40025,999,64750,.28136E-3,.5598E-4,0
QB50P2,2014-033Y,2026-05-11T16:55:44.806944,15.14686174,.0005887,98.0758,126.3309,308.4764,51.5938,0,U,40032,999,64714,.21784E-3,.3958E-4,0
PERSEUS-M2,2014-033AD,2026-05-11T19:08:29.965056,14.95393386,.0013133,97.9935,81.6057,63.3384,296.9179,0,U,40037,999,64534,.1094E-3,.1149E-4,0
