CUTE-1 (CO-55)          
1 27844U 03031E   26131.01616769  .00000204  00000+0  10731-3 0  9991
2 27844  98.6748 140.0418 0008392 297.0013  63.0309 14.24312209186386
CUBESAT XI-IV (CO-57)   
1 27848U 03031J   26131.75915338  .00000161  00000+0  89832-4 0  9991
2 27848  98.6780 140.5174 0008530 315.4592  44.5900 14.23600757186198
CUBESAT XI-V            
1 28895U 05043F   26131.37052593  .00000850  00000+0  14206-3 0  9999
2 28895  98.2945 286.2304 0013240 326.6866  33.3506 14.72532793 96337
CUTE-1.7+APD II (CO-65) 
1 32785U 08021C   26131.85062080  .00002616  00000+0  16909-3 0  9990
2 32785  97.8260 112.5287 0009974 143.3752 216.8159 15.09100100979711
CANX-2                  
1 32790U 08021H   26131.86501669  .00002092  00000+0  15041-3 0  9992
2 32790  97.8628 110.9502 0011040 156.9373 203.2350 15.05355532979342
SEEDS II (CO-66)        
1 32791U 08021J   26130.97235940  .00011027  00000+0  36525-3 0  9998
2 32791  97.7530 127.1344 0005072  88.5832 271.5989 15.31474077981597
SWISSCUBE               
1 35932U 09051B   26131.70124110  .00000610  00000+0  13029-3 0  9990
2 35932  98.4058  38.9523 0006300 338.0405  22.0525 14.62408901883820
BEESAT-1                
1 35933U 09051C   26131.48647191  .00000510  00000+0  11231-3 0  9997
2 35933  98.3987  38.4455 0005156 356.8811   3.2357 14.61658653883821
ITUPSAT1                
1 35935U 09051E   26130.69163038  .00000508  00000+0  11516-3 0  9997
2 35935  98.4072  36.8697 0007623   5.6146 354.5137 14.60382828883263
TISAT 1                 
1 36799U 10035E   26131.38463647  .00013280  00000+0  45560-3 0  9993
2 36799  98.0690  74.7177 0003666  55.9928 304.1659 15.30302000862075
AEROCUBE 4.5A           
1 38767U 12048K   26131.68892916  .00114867  00000+0  67162-3 0  9999
2 38767  64.6293 158.3602 0019411 217.0923 142.8891 15.77523696366872
STRAND-1                
1 39090U 13009E   26131.50430227  .00000179  00000+0  74739-4 0  9990
2 39090  98.3917 312.6434 0008294 349.0918  11.0088 14.37141086691795
BRITE-AUSTRIA           
1 39091U 13009F   26131.43178424  .00000110  00000+0  51969-4 0  9996
2 39091  98.3988 311.7791 0010037 357.0743   3.0383 14.36527080691771
NEE-01 PEGASO           
1 39151U 13018B   26131.61926554  .00001908  00000+0  18706-3 0  9995
2 39151  98.1174 274.5769 0011189 286.1094  73.8893 14.93479759705245
POPACS 2                
1 39269U 13055E   26131.59604559  .00009204  00000+0  15800-3 0  9990
2 39269  80.9931 186.0535 0419365 311.5041  45.0875 14.90383682657766
POPACS 3                
1 39270U 13055F   26131.82581568  .00011370  00000+0  27190-3 0  9994
2 39270  81.0002 268.5835 0554945 180.5703 179.4942 14.55222954633262
ZACUBE-1 (TSHEPISOSAT)  
1 39417U 13066B   26131.87676367  .00002959  00000+0  23309-3 0  9997
2 39417  97.8119  94.0169 0042031  15.3524 344.8964 15.00902822675285
WNISAT-1                
1 39423U 13066H   26131.35882419  .00000305  00000+0  64546-4 0  9996
2 39423  97.7157 283.1389 0162816 348.4142  11.3329 14.58016619661365
TRITON-1                
1 39427U 13066M   26131.82701524  .00001487  00000+0  18357-3 0  9999
2 39427  97.8260  42.4619 0090228 353.9220   6.0890 14.81542466668701
GOMX-1                  
1 39430U 13066Q   26131.82175186  .00001438  00000+0  22247-3 0  9991
2 39430  97.6514 334.5777 0128331 193.6825 166.0892 14.69315553664573
CUBEBUG-2 (LO-74)       
1 39440U 13066AA  26131.81980019  .00002024  00000+0  19168-3 0  9990
2 39440  97.8889  80.6587 0058789 146.5112 213.9847 14.93487885671568
NEE-02 KRYSAOR          
1 39441U 13066AB  26131.79351087  .00000959  00000+0  11069-3 0  9992
2 39441  97.8880  71.2763 0065959 187.7640 172.2561 14.86480801670799
FUNCUBE-1 (AO-73)       
1 39444U 13066AE  26131.85671316  .00005433  00000+0  34283-3 0  9997
2 39444  97.8258 102.5623 0035547 330.1880  29.7323 15.09012189674189
UWE-3                   
1 39446U 13066AG  26131.85056796  .00001943  00000+0  17105-3 0  9994
2 39446  97.8679  87.6953 0050951  80.9232 279.7749 14.96716038672146
BRITE-CA1 (TORONTO)     
1 40020U 14033L   26131.82291366  .00000450  00000+0  75317-4 0  9992
2 40020  97.9686 261.4333 0079369  34.2439 326.3850 14.72626274636861
DUCHIFAT-1              
1 40021U 14033M   26131.41895469  .00055146  00000+0  72925-3 0  9995
2 40021  98.0508 185.6247 0005703 190.8241 169.2891 15.58150241650012
NANOSATC-BR1            
1 40024U 14033Q   26131.53536653  .00009937  00000+0  34204-3 0  9993
2 40024  98.0758 160.7076 0002025 334.6480  25.4659 15.30286186648372
QB50P1                  
1 40025U 14033R   26131.76256983  .00005598  00000+0  28136-3 0  9990
2 40025  98.0984 140.3709 0008491   3.0086 357.1195 15.17687185647506
QB50P2                  
1 40032U 14033Y   26131.70537971  .00003958  00000+0  21784-3 0  9991
2 40032  98.0758 126.3309 0005887 308.4764  51.5938 15.14686174647148
PERSEUS-M2              
1 40037U 14033AD  26131.79756904  .00001149  00000+0  10940-3 0  9996
2 40037  97.9935  81.6057 0013133  63.3384 296.9179 14.95393386645349
